STARLINK-35139          
1 66380U 25257A   26167.16281757  .00023236  00000+0  69676-3 0  9995
2 66380  53.1591 117.9671 0001249  92.3671 267.7475 15.34397801 34775
STARLINK-35158          
1 66381U 25257B   26167.14022878  .00037963  00000+0  11284-2 0  9994
2 66381  53.1604 119.9518 0001069  78.7630 281.3493 15.34417476 34803
STARLINK-35639          
1 66382U 25257C   26167.15057169  .00008758  00000+0  30748-3 0  9994
2 66382  53.1592 120.0156 0001260  85.4421 274.6723 15.30199962 34801
STARLINK-35690          
1 66383U 25257D   26167.15650534  .00015184  00000+0  45959-3 0  9991
2 66383  53.1583 117.9258 0001310  92.4313 267.6840 15.34401720 34831
STARLINK-35662          
1 66384U 25257E   26167.16523402  .00028370  00000+0  96594-3 0  9998
2 66384  53.1585 119.3973 0001253  98.9447 261.1696 15.30213411 34819
STARLINK-35659          
1 66385U 25257F   26167.16071088  .00017356  00000+0  52359-3 0  9990
2 66385  53.1581 117.9532 0001071  89.2080 270.9045 15.34402115 34838
STARLINK-35651          
1 66386U 25257G   26167.16312008  .00015490  00000+0  53386-3 0  9999
2 66386  53.1581 119.3815 0001305  79.9644 280.1504 15.30208676 34814
STARLINK-35661          
1 66387U 25257H   26167.15019192  .00019798  00000+0  59558-3 0  9999
2 66387  53.1582 117.8845 0001113  81.4335 278.6794 15.34397919 34832
STARLINK-35647          
1 66388U 25257J   26167.15997503  .00028173  00000+0  95928-3 0  9999
2 66388  53.1578 119.3626 0001340  94.2961 265.8193 15.30215183 34807
STARLINK-35694          
1 66389U 25257K   26167.16417889  .00015490  00000+0  53391-3 0  9991
2 66389  53.1576 119.3847 0001361 104.5790 255.5362 15.30207982 34812
STARLINK-35665          
1 66390U 25257L   26167.17578149  .00012009  00000+0  41687-3 0  9999
2 66390  53.1589 119.4437 0001592 129.4764 230.6377 15.30204744 34911
STARLINK-35656          
1 66391U 25257M   26166.27151692  .00018929  00000+0  64965-3 0  9991
2 66391  53.1589 126.5991 0001210  91.2788 268.8352 15.30196788 34739
STARLINK-35671          
1 66392U 25257N   26167.15678841  .00012539  00000+0  43462-3 0  9990
2 66392  53.1583 119.3402 0001356  87.6912 272.4244 15.30209951 34817
STARLINK-35652          
1 66393U 25257P   26167.15164310 -.00143033  00000+0 -49275-2 0  9995
2 66393  53.1581 120.0202 0010344 107.8212 252.3918 15.30021855 34807
STARLINK-35672          
1 66394U 25257Q   26167.18175096  .00021544  00000+0  64686-3 0  9996
2 66394  53.1591 118.0809 0000836  95.4515 264.6583 15.34403577 34838
STARLINK-35681          
1 66395U 25257R   26167.10834073  .00014471  00000+0  49974-3 0  9990
2 66395  53.1585 119.7465 0006947 171.4770 188.6350 15.30187112 34720
STARLINK-35669          
1 66396U 25257S   26167.15860863  .00026264  00000+0  78575-3 0  9994
2 66396  53.1578 117.9354 0001181  90.6168 269.4969 15.34399697 34831
STARLINK-35510          
1 66397U 25257T   26167.15784301  .00015440  00000+0  53224-3 0  9995
2 66397  53.1582 119.3469 0001323  95.5125 264.6027 15.30206602 34814
STARLINK-35642          
1 66398U 25257U   26167.13975823  .00026199  00000+0  78352-3 0  9997
2 66398  53.1592 118.5267 0001295  89.5464 270.5687 15.34411775 34822
STARLINK-35657          
1 66399U 25257V   26167.13344964  .00023282  00000+0  69790-3 0  9990
2 66399  53.1596 118.4878 0001301  81.4032 278.7118 15.34407283 34811
STARLINK-35667          
1 66400U 25257W   26166.14378396  .00030214  00000+0  90131-3 0  9995
2 66400  53.1595 122.9748 0001551  79.5725 280.5452 15.34415654 34670
STARLINK-35668          
1 66401U 25257X   26167.18385666  .00019068  00000+0  57394-3 0  9997
2 66401  53.1610 118.0908 0001334  80.5711 279.5443 15.34405782 34836
STARLINK-35602          
1 66403U 25257Z   26167.17754538  .00019838  00000+0  59671-3 0  9991
2 66403  53.1594 118.0501 0001171 102.9931 257.1203 15.34400238 34837
STARLINK-35691          
1 66404U 25257AA  26167.17333766  .00017599  00000+0  53064-3 0  9990
2 66404  53.1585 118.0236 0001554 125.3694 234.7454 15.34408125 34835
STARLINK-35683          
1 66405U 25257AB  26167.13134498  .00032357  00000+0  96413-3 0  9992
2 66405  53.1605 118.4732 0001579  81.2453 278.8728 15.34417426 34752
STARLINK-34840          
1 66406U 25257AC  26167.10188823  .00014228  00000+0  43139-3 0  9995
2 66406  53.1582 118.2809 0001274 112.5976 247.5161 15.34403920 34769
STARLINK-35686          
1 66407U 25257AD  26167.16491944  .00028482  00000+0  85054-3 0  9992
2 66407  53.1591 117.9660 0001657  72.8101 287.3082 15.34413005 34831
STARLINK-35679          
1 66408U 25257AE  26167.10398737  .00022653  00000+0  67942-3 0  9993
2 66408  53.1588 118.2951 0003263 162.3973 197.7144 15.34404518 34823
CHUTIAN-2 A             
1 66409U 25256A   26164.78766075  .00000444  00000+0  12537-3 0  9992
2 66409  98.2509 231.0404 0013210 348.6845  11.4050 14.50200740 31401
CHUTIAN-2 B             
1 66410U 25256B   26167.18581197  .00000409  00000+0  11630-3 0  9995
2 66410  98.2531 233.4930 0013450 343.1340  16.9405 14.50195190 31758
