OBJECT_NAME,OBJECT_ID,EPOCH,MEAN_MOTION,ECCENTRICITY,INCLINATION,RA_OF_ASC_NODE,ARG_OF_PERICENTER,MEAN_ANOMALY,EPHEMERIS_TYPE,CLASSIFICATION_TYPE,NORAD_CAT_ID,ELEMENT_SET_NO,REV_AT_EPOCH,BSTAR,MEAN_MOTION_DOT,MEAN_MOTION_DDOT
STARLINK-35139,2025-257A,2026-06-16T03:54:27.438048,15.34397801,.0001249,53.1591,117.9671,92.3671,267.7475,0,U,66380,999,3477,.69676E-3,.23236E-3,0
STARLINK-35158,2025-257B,2026-06-16T03:21:55.766592,15.34417476,.0001069,53.1604,119.9518,78.7630,281.3493,0,U,66381,999,3480,.11284E-2,.37963E-3,0
STARLINK-35639,2025-257C,2026-06-16T03:36:49.394016,15.30199962,.000126,53.1592,120.0156,85.4421,274.6723,0,U,66382,999,3480,.30748E-3,.8758E-4,0
STARLINK-35690,2025-257D,2026-06-16T03:45:22.061376,15.34401720,.000131,53.1583,117.9258,92.4313,267.6840,0,U,66383,999,3483,.45959E-3,.15184E-3,0
STARLINK-35662,2025-257E,2026-06-16T03:57:56.219328,15.30213411,.0001253,53.1585,119.3973,98.9447,261.1696,0,U,66384,999,3481,.96594E-3,.2837E-3,0
STARLINK-35659,2025-257F,2026-06-16T03:51:25.420032,15.34402115,.0001071,53.1581,117.9532,89.2080,270.9045,0,U,66385,999,3483,.52359E-3,.17356E-3,0
STARLINK-35651,2025-257G,2026-06-16T03:54:53.574912,15.30208676,.0001305,53.1581,119.3815,79.9644,280.1504,0,U,66386,999,3481,.53386E-3,.1549E-3,0
STARLINK-35661,2025-257H,2026-06-16T03:36:16.581888,15.34397919,.0001113,53.1582,117.8845,81.4335,278.6794,0,U,66387,999,3483,.59558E-3,.19798E-3,0
STARLINK-35647,2025-257J,2026-06-16T03:50:21.842592,15.30215183,.000134,53.1578,119.3626,94.2961,265.8193,0,U,66388,999,3480,.95928E-3,.28173E-3,0
STARLINK-35694,2025-257K,2026-06-16T03:56:25.056096,15.30207982,.0001361,53.1576,119.3847,104.5790,255.5362,0,U,66389,999,3481,.53391E-3,.1549E-3,0
STARLINK-35665,2025-257L,2026-06-16T04:13:07.520736,15.30204744,.0001592,53.1589,119.4437,129.4764,230.6377,0,U,66390,999,3491,.41687E-3,.12009E-3,0
STARLINK-35656,2025-257M,2026-06-15T06:30:59.061888,15.30196788,.000121,53.1589,126.5991,91.2788,268.8352,0,U,66391,999,3473,.64965E-3,.18929E-3,0
STARLINK-35671,2025-257N,2026-06-16T03:45:46.518624,15.30209951,.0001356,53.1583,119.3402,87.6912,272.4244,0,U,66392,999,3481,.43462E-3,.12539E-3,0
STARLINK-35652,2025-257P,2026-06-16T03:38:21.963840,15.30021855,.0010344,53.1581,120.0202,107.8212,252.3918,0,U,66393,999,3480,-.49275E-2,-.143033E-2,0
STARLINK-35672,2025-257Q,2026-06-16T04:21:43.282944,15.34403577,.0000836,53.1591,118.0809,95.4515,264.6583,0,U,66394,999,3483,.64686E-3,.21544E-3,0
STARLINK-35681,2025-257R,2026-06-16T02:36:00.639072,15.30187112,.0006947,53.1585,119.7465,171.4770,188.6350,0,U,66395,999,3472,.49974E-3,.14471E-3,0
STARLINK-35669,2025-257S,2026-06-16T03:48:23.785632,15.34399697,.0001181,53.1578,117.9354,90.6168,269.4969,0,U,66396,999,3483,.78575E-3,.26264E-3,0
STARLINK-35510,2025-257T,2026-06-16T03:47:17.636064,15.30206602,.0001323,53.1582,119.3469,95.5125,264.6027,0,U,66397,999,3481,.53224E-3,.1544E-3,0
STARLINK-35642,2025-257U,2026-06-16T03:21:15.111072,15.34411775,.0001295,53.1592,118.5267,89.5464,270.5687,0,U,66398,999,3482,.78352E-3,.26199E-3,0
STARLINK-35657,2025-257V,2026-06-16T03:12:10.048896,15.34407283,.0001301,53.1596,118.4878,81.4032,278.7118,0,U,66399,999,3481,.6979E-3,.23282E-3,0
STARLINK-35667,2025-257W,2026-06-15T03:27:02.934144,15.34415654,.00015515,53.1595,122.9748,79.5725,280.5452,0,U,66400,999,3467,.90130648E-3,.30214E-3,0
STARLINK-35668,2025-257X,2026-06-16T04:24:45.215424,15.34405782,.0001334,53.1610,118.0908,80.5711,279.5443,0,U,66401,999,3483,.57394E-3,.19068E-3,0
STARLINK-35602,2025-257Z,2026-06-16T04:15:39.920832,15.34400238,.0001171,53.1594,118.0501,102.9931,257.1203,0,U,66403,999,3483,.59671E-3,.19838E-3,0
STARLINK-35691,2025-257AA,2026-06-16T04:09:36.373824,15.34408125,.0001554,53.1585,118.0236,125.3694,234.7454,0,U,66404,999,3483,.53064E-3,.17599E-3,0
STARLINK-35683,2025-257AB,2026-06-16T03:09:08.206272,15.34417426,.0001579,53.1605,118.4732,81.2453,278.8728,0,U,66405,999,3475,.96413E-3,.32357E-3,0
STARLINK-34840,2025-257AC,2026-06-16T02:26:43.143072,15.34403920,.0001274,53.1582,118.2809,112.5976,247.5161,0,U,66406,999,3476,.43139E-3,.14228E-3,0
STARLINK-35686,2025-257AD,2026-06-16T03:57:29.039616,15.34413005,.0001657,53.1591,117.9660,72.8101,287.3082,0,U,66407,999,3483,.85054E-3,.28482E-3,0
STARLINK-35679,2025-257AE,2026-06-16T02:29:44.508768,15.34404518,.0003263,53.1588,118.2951,162.3973,197.7144,0,U,66408,999,3482,.67942E-3,.22653E-3,0
CHUTIAN-2 A,2025-256A,2026-06-13T18:54:13.888800,14.50200740,.00132102,98.2509,231.0404,348.6845,11.4050,0,U,66409,999,3140,.1253673E-3,.444E-5,0
CHUTIAN-2 B,2025-256B,2026-06-16T04:27:34.154208,14.50195190,.001345,98.2531,233.4930,343.1340,16.9405,0,U,66410,999,3175,.1163E-3,.409E-5,0
